STARLINK-34635          
1 64761U 25147G   25221.49916499  .00066589  00000+0  16577-2 0  9997
2 64761  53.1606 151.2575 0000492 341.3296  18.7690 15.39666170  6221
STARLINK-34638          
1 64762U 25147H   25221.58335648  .00047050  00000+0  11808-2 0  9993
2 64762  53.1605 150.7585 0000960 114.4198  44.0829 15.39573142  5980
STARLINK-34534          
1 64763U 25147J   25221.91668981  .00027681  00000+0  70056-3 0  9999
2 64763  53.1606 149.0335 0000775 123.7388 160.6305 15.39573186  6280
STARLINK-34261          
1 64764U 25147K   25221.58335648  .00054163  00000+0  13569-2 0  9994
2 64764  53.1606 150.5518 0001529 107.8989 153.6191 15.39564900  6086
STARLINK-34566          
1 64765U 25147L   25221.58335648  .00063509  00000+0  15881-2 0  9998
2 64765  53.1607 150.4494 0001602  92.5373 220.4823 15.39550883  5976
STARLINK-34645          
1 64766U 25147M   25221.09575211  .00059326  00000+0  14790-2 0  9997
2 64766  53.1600 153.0030 0001264  94.8262 265.2887 15.39673596  6167
STARLINK-34639          
1 64767U 25147N   25221.58335648 -.01617621  00000+0 -37750-1 0  9991
2 64767  53.1604 150.3674 0000910  91.1911 262.7569 15.44916020  6082
STARLINK-34609          
1 64768U 25147P   25221.91668981 -.01592976  00000+0 -35557-1 0  9996
2 64768  53.1594 148.7610 0000727  89.5234 331.3185 15.46154996  6295
STARLINK-34246          
1 64769U 25147Q   25221.76313806  .00056457  00000+0  14087-2 0  9995
2 64769  53.1650 150.0613 0003022  84.5908 275.5442 15.39666589  6262
STARLINK-34618          
1 64770U 25147R   25221.50813317  .00039959  00000+0  10032-2 0  9995
2 64770  53.1604 151.3121 0003735  70.6090 289.5318 15.39631306  6154
STARLINK-34541          
1 64771U 25147S   25221.10468921 -.00007152  00000+0 -16892-3 0  9992
2 64771  53.1590 153.0611 0001654  93.5454 266.5740 15.39629076  6096
STARLINK-34652          
1 64772U 25147T   25221.10006580  .00040027  00000+0  10038-2 0  9993
2 64772  53.1606 153.0300 0003004  97.4908 262.6439 15.39666414  6165
STARLINK-34612          
1 64773U 25147U   25221.49883834  .00036143  00000+0  90820-3 0  9993
2 64773  53.1613 151.2529 0001267 105.9898 254.1246 15.39656346  6221
STARLINK-34621          
1 64774U 25147V   25221.22524695  .00053969  00000+0  13478-2 0  9990
2 64774  53.1608 152.3883 0001220  88.1110 272.0035 15.39662170  6114
STARLINK-34657          
1 64775U 25147W   25221.58335648  .00052033  00000+0  13040-2 0  9994
2 64775  53.1606 150.6486 0001211  94.1061 117.7356 15.39571920  6095
STARLINK-34637          
1 64776U 25147X   25221.58335648  .00056897  00000+0  14242-2 0  9992
2 64776  53.1607 150.5971 0001145 109.8313 127.7660 15.39568838  6098
STARLINK-34547          
1 64777U 25147Y   25221.58335648  .00052423  00000+0  13139-2 0  9998
2 64777  53.1607 150.5458 0001289 108.6879 154.6666 15.39565534  6097
