[{"OBJECT_NAME":"STARLINK-34635","OBJECT_ID":"2025-147G","EPOCH":"2025-08-09T11:58:47.855136","MEAN_MOTION":15.3966617,"ECCENTRICITY":4.92e-5,"INCLINATION":53.1606,"RA_OF_ASC_NODE":151.2575,"ARG_OF_PERICENTER":341.3296,"MEAN_ANOMALY":18.769,"EPHEMERIS_TYPE":0,"CLASSIFICATION_TYPE":"U","NORAD_CAT_ID":64761,"ELEMENT_SET_NO":999,"REV_AT_EPOCH":622,"BSTAR":0.0016577,"MEAN_MOTION_DOT":0.00066589,"MEAN_MOTION_DDOT":0},{"OBJECT_NAME":"STARLINK-34638","OBJECT_ID":"2025-147H","EPOCH":"2025-08-09T14:00:01.999872","MEAN_MOTION":15.39573142,"ECCENTRICITY":9.6e-5,"INCLINATION":53.1605,"RA_OF_ASC_NODE":150.7585,"ARG_OF_PERICENTER":114.4198,"MEAN_ANOMALY":44.0829,"EPHEMERIS_TYPE":0,"CLASSIFICATION_TYPE":"U","NORAD_CAT_ID":64762,"ELEMENT_SET_NO":999,"REV_AT_EPOCH":598,"BSTAR":0.0011808,"MEAN_MOTION_DOT":0.0004705,"MEAN_MOTION_DDOT":0},{"OBJECT_NAME":"STARLINK-34534","OBJECT_ID":"2025-147J","EPOCH":"2025-08-09T22:00:01.999584","MEAN_MOTION":15.39573186,"ECCENTRICITY":7.75e-5,"INCLINATION":53.1606,"RA_OF_ASC_NODE":149.0335,"ARG_OF_PERICENTER":123.7388,"MEAN_ANOMALY":160.6305,"EPHEMERIS_TYPE":0,"CLASSIFICATION_TYPE":"U","NORAD_CAT_ID":64763,"ELEMENT_SET_NO":999,"REV_AT_EPOCH":628,"BSTAR":0.00070056,"MEAN_MOTION_DOT":0.00027681,"MEAN_MOTION_DDOT":0},{"OBJECT_NAME":"STARLINK-34261","OBJECT_ID":"2025-147K","EPOCH":"2025-08-09T14:00:01.999872","MEAN_MOTION":15.395649,"ECCENTRICITY":0.0001529,"INCLINATION":53.1606,"RA_OF_ASC_NODE":150.5518,"ARG_OF_PERICENTER":107.8989,"MEAN_ANOMALY":153.6191,"EPHEMERIS_TYPE":0,"CLASSIFICATION_TYPE":"U","NORAD_CAT_ID":64764,"ELEMENT_SET_NO":999,"REV_AT_EPOCH":608,"BSTAR":0.0013569,"MEAN_MOTION_DOT":0.00054163,"MEAN_MOTION_DDOT":0},{"OBJECT_NAME":"STARLINK-34566","OBJECT_ID":"2025-147L","EPOCH":"2025-08-09T14:00:01.999872","MEAN_MOTION":15.39550883,"ECCENTRICITY":0.0001602,"INCLINATION":53.1607,"RA_OF_ASC_NODE":150.4494,"ARG_OF_PERICENTER":92.5373,"MEAN_ANOMALY":220.4823,"EPHEMERIS_TYPE":0,"CLASSIFICATION_TYPE":"U","NORAD_CAT_ID":64765,"ELEMENT_SET_NO":999,"REV_AT_EPOCH":597,"BSTAR":0.0015881,"MEAN_MOTION_DOT":0.00063509,"MEAN_MOTION_DDOT":0},{"OBJECT_NAME":"STARLINK-34645","OBJECT_ID":"2025-147M","EPOCH":"2025-08-09T02:17:52.982304","MEAN_MOTION":15.39673596,"ECCENTRICITY":0.0001264,"INCLINATION":53.16,"RA_OF_ASC_NODE":153.003,"ARG_OF_PERICENTER":94.8262,"MEAN_ANOMALY":265.2887,"EPHEMERIS_TYPE":0,"CLASSIFICATION_TYPE":"U","NORAD_CAT_ID":64766,"ELEMENT_SET_NO":999,"REV_AT_EPOCH":616,"BSTAR":0.001479,"MEAN_MOTION_DOT":0.00059326,"MEAN_MOTION_DDOT":0},{"OBJECT_NAME":"STARLINK-34639","OBJECT_ID":"2025-147N","EPOCH":"2025-08-09T14:00:01.999872","MEAN_MOTION":15.4491602,"ECCENTRICITY":9.1e-5,"INCLINATION":53.1604,"RA_OF_ASC_NODE":150.3674,"ARG_OF_PERICENTER":91.1911,"MEAN_ANOMALY":262.7569,"EPHEMERIS_TYPE":0,"CLASSIFICATION_TYPE":"U","NORAD_CAT_ID":64767,"ELEMENT_SET_NO":999,"REV_AT_EPOCH":608,"BSTAR":-0.03775,"MEAN_MOTION_DOT":-0.01617621,"MEAN_MOTION_DDOT":0},{"OBJECT_NAME":"STARLINK-34609","OBJECT_ID":"2025-147P","EPOCH":"2025-08-09T22:00:01.999584","MEAN_MOTION":15.46154996,"ECCENTRICITY":7.27e-5,"INCLINATION":53.1594,"RA_OF_ASC_NODE":148.761,"ARG_OF_PERICENTER":89.5234,"MEAN_ANOMALY":331.3185,"EPHEMERIS_TYPE":0,"CLASSIFICATION_TYPE":"U","NORAD_CAT_ID":64768,"ELEMENT_SET_NO":999,"REV_AT_EPOCH":629,"BSTAR":-0.035557,"MEAN_MOTION_DOT":-0.01592976,"MEAN_MOTION_DDOT":0},{"OBJECT_NAME":"STARLINK-34246","OBJECT_ID":"2025-147Q","EPOCH":"2025-08-09T18:18:55.128384","MEAN_MOTION":15.39666589,"ECCENTRICITY":0.0003022,"INCLINATION":53.165,"RA_OF_ASC_NODE":150.0613,"ARG_OF_PERICENTER":84.5908,"MEAN_ANOMALY":275.5442,"EPHEMERIS_TYPE":0,"CLASSIFICATION_TYPE":"U","NORAD_CAT_ID":64769,"ELEMENT_SET_NO":999,"REV_AT_EPOCH":626,"BSTAR":0.0014087,"MEAN_MOTION_DOT":0.00056457,"MEAN_MOTION_DDOT":0},{"OBJECT_NAME":"STARLINK-34618","OBJECT_ID":"2025-147R","EPOCH":"2025-08-09T12:11:42.705888","MEAN_MOTION":15.39631306,"ECCENTRICITY":0.0003735,"INCLINATION":53.1604,"RA_OF_ASC_NODE":151.3121,"ARG_OF_PERICENTER":70.609,"MEAN_ANOMALY":289.5318,"EPHEMERIS_TYPE":0,"CLASSIFICATION_TYPE":"U","NORAD_CAT_ID":64770,"ELEMENT_SET_NO":999,"REV_AT_EPOCH":615,"BSTAR":0.0010032,"MEAN_MOTION_DOT":0.00039959,"MEAN_MOTION_DDOT":0},{"OBJECT_NAME":"STARLINK-34541","OBJECT_ID":"2025-147S","EPOCH":"2025-08-09T02:30:45.147744","MEAN_MOTION":15.39629076,"ECCENTRICITY":0.0001654,"INCLINATION":53.159,"RA_OF_ASC_NODE":153.0611,"ARG_OF_PERICENTER":93.5454,"MEAN_ANOMALY":266.574,"EPHEMERIS_TYPE":0,"CLASSIFICATION_TYPE":"U","NORAD_CAT_ID":64771,"ELEMENT_SET_NO":999,"REV_AT_EPOCH":609,"BSTAR":-0.00016892,"MEAN_MOTION_DOT":-7.152e-5,"MEAN_MOTION_DDOT":0},{"OBJECT_NAME":"STARLINK-34652","OBJECT_ID":"2025-147T","EPOCH":"2025-08-09T02:24:05.685120","MEAN_MOTION":15.39666414,"ECCENTRICITY":0.0003004,"INCLINATION":53.1606,"RA_OF_ASC_NODE":153.03,"ARG_OF_PERICENTER":97.4908,"MEAN_ANOMALY":262.6439,"EPHEMERIS_TYPE":0,"CLASSIFICATION_TYPE":"U","NORAD_CAT_ID":64772,"ELEMENT_SET_NO":999,"REV_AT_EPOCH":616,"BSTAR":0.0010038,"MEAN_MOTION_DOT":0.00040027,"MEAN_MOTION_DDOT":0},{"OBJECT_NAME":"STARLINK-34612","OBJECT_ID":"2025-147U","EPOCH":"2025-08-09T11:58:19.632576","MEAN_MOTION":15.39656346,"ECCENTRICITY":0.0001267,"INCLINATION":53.1613,"RA_OF_ASC_NODE":151.2529,"ARG_OF_PERICENTER":105.9898,"MEAN_ANOMALY":254.1246,"EPHEMERIS_TYPE":0,"CLASSIFICATION_TYPE":"U","NORAD_CAT_ID":64773,"ELEMENT_SET_NO":999,"REV_AT_EPOCH":622,"BSTAR":0.0009082,"MEAN_MOTION_DOT":0.00036143,"MEAN_MOTION_DDOT":0},{"OBJECT_NAME":"STARLINK-34621","OBJECT_ID":"2025-147V","EPOCH":"2025-08-09T05:24:21.336480","MEAN_MOTION":15.3966217,"ECCENTRICITY":0.000122,"INCLINATION":53.1608,"RA_OF_ASC_NODE":152.3883,"ARG_OF_PERICENTER":88.111,"MEAN_ANOMALY":272.0035,"EPHEMERIS_TYPE":0,"CLASSIFICATION_TYPE":"U","NORAD_CAT_ID":64774,"ELEMENT_SET_NO":999,"REV_AT_EPOCH":611,"BSTAR":0.0013478,"MEAN_MOTION_DOT":0.00053969,"MEAN_MOTION_DDOT":0},{"OBJECT_NAME":"STARLINK-34657","OBJECT_ID":"2025-147W","EPOCH":"2025-08-09T14:00:01.999872","MEAN_MOTION":15.3957192,"ECCENTRICITY":0.0001211,"INCLINATION":53.1606,"RA_OF_ASC_NODE":150.6486,"ARG_OF_PERICENTER":94.1061,"MEAN_ANOMALY":117.7356,"EPHEMERIS_TYPE":0,"CLASSIFICATION_TYPE":"U","NORAD_CAT_ID":64775,"ELEMENT_SET_NO":999,"REV_AT_EPOCH":609,"BSTAR":0.001304,"MEAN_MOTION_DOT":0.00052033,"MEAN_MOTION_DDOT":0},{"OBJECT_NAME":"STARLINK-34637","OBJECT_ID":"2025-147X","EPOCH":"2025-08-09T14:00:01.999872","MEAN_MOTION":15.39568838,"ECCENTRICITY":0.0001145,"INCLINATION":53.1607,"RA_OF_ASC_NODE":150.5971,"ARG_OF_PERICENTER":109.8313,"MEAN_ANOMALY":127.766,"EPHEMERIS_TYPE":0,"CLASSIFICATION_TYPE":"U","NORAD_CAT_ID":64776,"ELEMENT_SET_NO":999,"REV_AT_EPOCH":609,"BSTAR":0.0014242,"MEAN_MOTION_DOT":0.00056897,"MEAN_MOTION_DDOT":0},{"OBJECT_NAME":"STARLINK-34547","OBJECT_ID":"2025-147Y","EPOCH":"2025-08-09T14:00:01.999872","MEAN_MOTION":15.39565534,"ECCENTRICITY":0.0001289,"INCLINATION":53.1607,"RA_OF_ASC_NODE":150.5458,"ARG_OF_PERICENTER":108.6879,"MEAN_ANOMALY":154.6666,"EPHEMERIS_TYPE":0,"CLASSIFICATION_TYPE":"U","NORAD_CAT_ID":64777,"ELEMENT_SET_NO":999,"REV_AT_EPOCH":609,"BSTAR":0.0013139,"MEAN_MOTION_DOT":0.00052423,"MEAN_MOTION_DDOT":0}]
